[{"OBJECT_NAME":"STARLINK-30399","OBJECT_ID":"2023-148S","EPOCH":"2026-03-09T04:14:08.879424","MEAN_MOTION":15.30189213,"ECCENTRICITY":0.00013452,"INCLINATION":53.1624,"RA_OF_ASC_NODE":26.6571,"ARG_OF_PERICENTER":108.3132,"MEAN_ANOMALY":251.8015,"EPHEMERIS_TYPE":0,"CLASSIFICATION_TYPE":"U","NORAD_CAT_ID":57951,"ELEMENT_SET_NO":999,"REV_AT_EPOCH":13834,"BSTAR":-2.3928317e-5,"MEAN_MOTION_DOT":-1.068e-5,"MEAN_MOTION_DDOT":0},{"OBJECT_NAME":"TRANSPORTER-12 OBJECT AZ","OBJECT_ID":"2025-009AZ","EPOCH":"2026-03-09T17:02:46.667040","MEAN_MOTION":15.30349724,"ECCENTRICITY":9.87e-5,"INCLINATION":97.3981,"RA_OF_ASC_NODE":151.9913,"ARG_OF_PERICENTER":45.3581,"MEAN_ANOMALY":314.774,"EPHEMERIS_TYPE":0,"CLASSIFICATION_TYPE":"U","NORAD_CAT_ID":62656,"ELEMENT_SET_NO":999,"REV_AT_EPOCH":6379,"BSTAR":0.00054902545,"MEAN_MOTION_DOT":0.00016057,"MEAN_MOTION_DDOT":0}]
